LEMUR-2-ANDIS           
1 42838U 17042P   26068.55941107  .00023598  00000+0  79875-3 0  9998
2 42838  97.3659 249.7950 0009101   4.3248 355.8070 15.30557934473198
STARLINK-32383          
1 61891U 24204T   26068.54762585 -.00000397  00000+0 -12773-5 0  9996
2 61891  53.1607 127.8864 0001168 113.3459 246.7665 15.30189917 75076
